[{"OBJECT_NAME":"STARLINK-3203","OBJECT_ID":"2021-115AP","EPOCH":"2025-11-15T15:00:33.002208","MEAN_MOTION":15.08850455,"ECCENTRICITY":0.0001178,"INCLINATION":53.2162,"RA_OF_ASC_NODE":291.1754,"ARG_OF_PERICENTER":92.2296,"MEAN_ANOMALY":267.8831,"EPHEMERIS_TYPE":0,"CLASSIFICATION_TYPE":"U","NORAD_CAT_ID":49761,"ELEMENT_SET_NO":999,"REV_AT_EPOCH":21845,"BSTAR":0.00077515,"MEAN_MOTION_DOT":0.00012074,"MEAN_MOTION_DDOT":0},{"OBJECT_NAME":"STARLINK-3195","OBJECT_ID":"2021-115AQ","EPOCH":"2025-11-15T15:27:01.774656","MEAN_MOTION":15.08852415,"ECCENTRICITY":0.0001363,"INCLINATION":53.2167,"RA_OF_ASC_NODE":291.093,"ARG_OF_PERICENTER":83.7664,"MEAN_ANOMALY":276.3483,"EPHEMERIS_TYPE":0,"CLASSIFICATION_TYPE":"U","NORAD_CAT_ID":49762,"ELEMENT_SET_NO":999,"REV_AT_EPOCH":21846,"BSTAR":0.00050683,"MEAN_MOTION_DOT":7.79e-5,"MEAN_MOTION_DDOT":0},{"OBJECT_NAME":"STARLINK-3198","OBJECT_ID":"2021-115AR","EPOCH":"2025-11-15T05:38:48.787296","MEAN_MOTION":15.08827382,"ECCENTRICITY":0.00014,"INCLINATION":53.2167,"RA_OF_ASC_NODE":292.9266,"ARG_OF_PERICENTER":74.44,"MEAN_ANOMALY":285.6747,"EPHEMERIS_TYPE":0,"CLASSIFICATION_TYPE":"U","NORAD_CAT_ID":49763,"ELEMENT_SET_NO":999,"REV_AT_EPOCH":21840,"BSTAR":0.00048157,"MEAN_MOTION_DOT":7.382e-5,"MEAN_MOTION_DDOT":0},{"OBJECT_NAME":"STARLINK-3227","OBJECT_ID":"2021-115AT","EPOCH":"2025-11-15T15:23:07.209024","MEAN_MOTION":15.088351,"ECCENTRICITY":0.0001316,"INCLINATION":53.217,"RA_OF_ASC_NODE":291.1143,"ARG_OF_PERICENTER":88.5526,"MEAN_ANOMALY":271.5617,"EPHEMERIS_TYPE":0,"CLASSIFICATION_TYPE":"U","NORAD_CAT_ID":49765,"ELEMENT_SET_NO":999,"REV_AT_EPOCH":21846,"BSTAR":4.4923e-5,"MEAN_MOTION_DOT":4.27e-6,"MEAN_MOTION_DDOT":0},{"OBJECT_NAME":"STARLINK-3190","OBJECT_ID":"2021-115AU","EPOCH":"2025-11-15T15:44:17.542176","MEAN_MOTION":15.08838088,"ECCENTRICITY":0.0001874,"INCLINATION":53.2189,"RA_OF_ASC_NODE":291.0488,"ARG_OF_PERICENTER":81.6579,"MEAN_ANOMALY":278.4626,"EPHEMERIS_TYPE":0,"CLASSIFICATION_TYPE":"U","NORAD_CAT_ID":49766,"ELEMENT_SET_NO":999,"REV_AT_EPOCH":21846,"BSTAR":-0.00014831,"MEAN_MOTION_DOT":-2.648e-5,"MEAN_MOTION_DDOT":0},{"OBJECT_NAME":"STARLINK-3192","OBJECT_ID":"2021-115AV","EPOCH":"2025-11-15T15:32:20.808384","MEAN_MOTION":15.088242,"ECCENTRICITY":0.0001334,"INCLINATION":53.2178,"RA_OF_ASC_NODE":291.0763,"ARG_OF_PERICENTER":80.5729,"MEAN_ANOMALY":279.5414,"EPHEMERIS_TYPE":0,"CLASSIFICATION_TYPE":"U","NORAD_CAT_ID":49767,"ELEMENT_SET_NO":999,"REV_AT_EPOCH":21846,"BSTAR":0.00036065,"MEAN_MOTION_DOT":5.454e-5,"MEAN_MOTION_DDOT":0},{"OBJECT_NAME":"STARLINK-3196","OBJECT_ID":"2021-115AW","EPOCH":"2025-11-15T15:53:31.022304","MEAN_MOTION":15.08850389,"ECCENTRICITY":0.0001721,"INCLINATION":53.2161,"RA_OF_ASC_NODE":291.0125,"ARG_OF_PERICENTER":72.1391,"MEAN_ANOMALY":287.9788,"EPHEMERIS_TYPE":0,"CLASSIFICATION_TYPE":"U","NORAD_CAT_ID":49768,"ELEMENT_SET_NO":999,"REV_AT_EPOCH":21846,"BSTAR":0.00048029,"MEAN_MOTION_DOT":7.366e-5,"MEAN_MOTION_DDOT":0},{"OBJECT_NAME":"STARLINK-3208","OBJECT_ID":"2021-115AX","EPOCH":"2025-11-15T15:54:56.359584","MEAN_MOTION":15.08830611,"ECCENTRICITY":0.0001333,"INCLINATION":53.2166,"RA_OF_ASC_NODE":291.0554,"ARG_OF_PERICENTER":103.0703,"MEAN_ANOMALY":257.0438,"EPHEMERIS_TYPE":0,"CLASSIFICATION_TYPE":"U","NORAD_CAT_ID":49769,"ELEMENT_SET_NO":999,"REV_AT_EPOCH":21846,"BSTAR":0.0007497,"MEAN_MOTION_DOT":0.00011661,"MEAN_MOTION_DDOT":0},{"OBJECT_NAME":"STARLINK-3191","OBJECT_ID":"2021-115AY","EPOCH":"2025-11-15T04:57:46.452096","MEAN_MOTION":15.08850064,"ECCENTRICITY":0.0001344,"INCLINATION":53.2173,"RA_OF_ASC_NODE":293.1009,"ARG_OF_PERICENTER":75.9385,"MEAN_ANOMALY":284.1756,"EPHEMERIS_TYPE":0,"CLASSIFICATION_TYPE":"U","NORAD_CAT_ID":49770,"ELEMENT_SET_NO":999,"REV_AT_EPOCH":21951,"BSTAR":0.0004834,"MEAN_MOTION_DOT":7.416e-5,"MEAN_MOTION_DDOT":0},{"OBJECT_NAME":"STARLINK-3201","OBJECT_ID":"2021-115AZ","EPOCH":"2025-11-15T04:56:26.270304","MEAN_MOTION":15.08852064,"ECCENTRICITY":0.0001161,"INCLINATION":53.2167,"RA_OF_ASC_NODE":293.0571,"ARG_OF_PERICENTER":85.5044,"MEAN_ANOMALY":274.6081,"EPHEMERIS_TYPE":0,"CLASSIFICATION_TYPE":"U","NORAD_CAT_ID":49771,"ELEMENT_SET_NO":999,"REV_AT_EPOCH":21839,"BSTAR":0.0006103,"MEAN_MOTION_DOT":9.441e-5,"MEAN_MOTION_DDOT":0},{"OBJECT_NAME":"STARLINK-3317","OBJECT_ID":"2021-125A","EPOCH":"2025-11-15T20:00:01.999008","MEAN_MOTION":15.64686926,"ECCENTRICITY":0.0001311,"INCLINATION":53.2226,"RA_OF_ASC_NODE":32.4814,"ARG_OF_PERICENTER":57.7857,"MEAN_ANOMALY":38.5576,"EPHEMERIS_TYPE":0,"CLASSIFICATION_TYPE":"U","NORAD_CAT_ID":50156,"ELEMENT_SET_NO":999,"REV_AT_EPOCH":587,"BSTAR":0.0051293,"MEAN_MOTION_DOT":0.00541279,"MEAN_MOTION_DDOT":0},{"OBJECT_NAME":"STARLINK-3309","OBJECT_ID":"2021-125C","EPOCH":"2025-11-15T02:49:59.869920","MEAN_MOTION":16.09396223,"ECCENTRICITY":0.0001287,"INCLINATION":53.2134,"RA_OF_ASC_NODE":37.2139,"ARG_OF_PERICENTER":21.3701,"MEAN_ANOMALY":338.7388,"EPHEMERIS_TYPE":0,"CLASSIFICATION_TYPE":"U","NORAD_CAT_ID":50158,"ELEMENT_SET_NO":999,"REV_AT_EPOCH":21944,"BSTAR":0.00081269,"MEAN_MOTION_DOT":0.0075182,"MEAN_MOTION_DDOT":0.00031489},{"OBJECT_NAME":"STARLINK-3297","OBJECT_ID":"2021-125D","EPOCH":"2025-11-15T15:07:09.187680","MEAN_MOTION":15.08908559,"ECCENTRICITY":0.0001498,"INCLINATION":53.217,"RA_OF_ASC_NODE":51.1646,"ARG_OF_PERICENTER":109.4958,"MEAN_ANOMALY":250.6196,"EPHEMERIS_TYPE":0,"CLASSIFICATION_TYPE":"U","NORAD_CAT_ID":50159,"ELEMENT_SET_NO":999,"REV_AT_EPOCH":21923,"BSTAR":0.0013188,"MEAN_MOTION_DOT":0.00020802,"MEAN_MOTION_DDOT":0},{"OBJECT_NAME":"STARLINK-3304","OBJECT_ID":"2021-125F","EPOCH":"2025-11-15T15:21:44.464608","MEAN_MOTION":15.08829195,"ECCENTRICITY":0.0001609,"INCLINATION":53.2176,"RA_OF_ASC_NODE":51.1088,"ARG_OF_PERICENTER":114.4507,"MEAN_ANOMALY":245.6653,"EPHEMERIS_TYPE":0,"CLASSIFICATION_TYPE":"U","NORAD_CAT_ID":50161,"ELEMENT_SET_NO":999,"REV_AT_EPOCH":21923,"BSTAR":-2.2572e-6,"MEAN_MOTION_DOT":-3.24e-6,"MEAN_MOTION_DDOT":0},{"OBJECT_NAME":"STARLINK-3306","OBJECT_ID":"2021-125H","EPOCH":"2025-11-15T14:57:52.972128","MEAN_MOTION":15.0884625,"ECCENTRICITY":0.0001307,"INCLINATION":53.2181,"RA_OF_ASC_NODE":31.1717,"ARG_OF_PERICENTER":93.8391,"MEAN_ANOMALY":266.2751,"EPHEMERIS_TYPE":0,"CLASSIFICATION_TYPE":"U","NORAD_CAT_ID":50163,"ELEMENT_SET_NO":999,"REV_AT_EPOCH":21951,"BSTAR":0.00032578,"MEAN_MOTION_DOT":4.902e-5,"MEAN_MOTION_DDOT":0},{"OBJECT_NAME":"STARLINK-3298","OBJECT_ID":"2021-125K","EPOCH":"2025-11-15T15:00:32.713632","MEAN_MOTION":15.0883709,"ECCENTRICITY":0.0001017,"INCLINATION":53.219,"RA_OF_ASC_NODE":51.1752,"ARG_OF_PERICENTER":85.9286,"MEAN_ANOMALY":274.1823,"EPHEMERIS_TYPE":0,"CLASSIFICATION_TYPE":"U","NORAD_CAT_ID":50165,"ELEMENT_SET_NO":999,"REV_AT_EPOCH":21928,"BSTAR":-0.00021546,"MEAN_MOTION_DOT":-3.715e-5,"MEAN_MOTION_DDOT":0},{"OBJECT_NAME":"STARLINK-3305","OBJECT_ID":"2021-125L","EPOCH":"2025-11-15T15:24:24.314112","MEAN_MOTION":15.08850813,"ECCENTRICITY":0.0001195,"INCLINATION":53.2184,"RA_OF_ASC_NODE":41.0324,"ARG_OF_PERICENTER":84.5012,"MEAN_ANOMALY":275.6116,"EPHEMERIS_TYPE":0,"CLASSIFICATION_TYPE":"U","NORAD_CAT_ID":50166,"ELEMENT_SET_NO":999,"REV_AT_EPOCH":21937,"BSTAR":0.00035114,"MEAN_MOTION_DOT":5.306e-5,"MEAN_MOTION_DDOT":0},{"OBJECT_NAME":"STARLINK-3271","OBJECT_ID":"2021-125M","EPOCH":"2025-11-15T13:15:57.060000","MEAN_MOTION":15.08832542,"ECCENTRICITY":0.0001394,"INCLINATION":53.2183,"RA_OF_ASC_NODE":51.5103,"ARG_OF_PERICENTER":105.3123,"MEAN_ANOMALY":254.8023,"EPHEMERIS_TYPE":0,"CLASSIFICATION_TYPE":"U","NORAD_CAT_ID":50167,"ELEMENT_SET_NO":999,"REV_AT_EPOCH":21922,"BSTAR":0.00073206,"MEAN_MOTION_DOT":0.0001138,"MEAN_MOTION_DDOT":0},{"OBJECT_NAME":"STARLINK-3296","OBJECT_ID":"2021-125N","EPOCH":"2025-11-15T20:00:01.999008","MEAN_MOTION":15.15365126,"ECCENTRICITY":9.4e-5,"INCLINATION":53.2183,"RA_OF_ASC_NODE":40.2005,"ARG_OF_PERICENTER":66.5394,"MEAN_ANOMALY":259.4216,"EPHEMERIS_TYPE":0,"CLASSIFICATION_TYPE":"U","NORAD_CAT_ID":50168,"ELEMENT_SET_NO":999,"REV_AT_EPOCH":578,"BSTAR":0.0021249,"MEAN_MOTION_DOT":0.00040482,"MEAN_MOTION_DDOT":0},{"OBJECT_NAME":"STARLINK-3301","OBJECT_ID":"2021-125P","EPOCH":"2025-11-15T14:45:58.095936","MEAN_MOTION":15.08813441,"ECCENTRICITY":0.0001228,"INCLINATION":53.219,"RA_OF_ASC_NODE":41.2208,"ARG_OF_PERICENTER":81.4933,"MEAN_ANOMALY":278.6199,"EPHEMERIS_TYPE":0,"CLASSIFICATION_TYPE":"U","NORAD_CAT_ID":50169,"ELEMENT_SET_NO":999,"REV_AT_EPOCH":21938,"BSTAR":0.00018211,"MEAN_MOTION_DOT":2.61e-5,"MEAN_MOTION_DDOT":0},{"OBJECT_NAME":"STARLINK-3245","OBJECT_ID":"2021-125Q","EPOCH":"2025-11-15T15:17:44.049696","MEAN_MOTION":15.08853347,"ECCENTRICITY":0.0001756,"INCLINATION":53.2168,"RA_OF_ASC_NODE":41.1195,"ARG_OF_PERICENTER":92.2751,"MEAN_ANOMALY":267.8443,"EPHEMERIS_TYPE":0,"CLASSIFICATION_TYPE":"U","NORAD_CAT_ID":50170,"ELEMENT_SET_NO":999,"REV_AT_EPOCH":21937,"BSTAR":0.00015621,"MEAN_MOTION_DOT":2.2e-5,"MEAN_MOTION_DDOT":0},{"OBJECT_NAME":"STARLINK-3286","OBJECT_ID":"2021-125R","EPOCH":"2025-11-15T15:38:57.412896","MEAN_MOTION":15.08836189,"ECCENTRICITY":0.000144,"INCLINATION":53.2181,"RA_OF_ASC_NODE":41.0529,"ARG_OF_PERICENTER":102.6323,"MEAN_ANOMALY":257.483,"EPHEMERIS_TYPE":0,"CLASSIFICATION_TYPE":"U","NORAD_CAT_ID":50171,"ELEMENT_SET_NO":999,"REV_AT_EPOCH":21938,"BSTAR":0.00026081,"MEAN_MOTION_DOT":3.865e-5,"MEAN_MOTION_DDOT":0},{"OBJECT_NAME":"STARLINK-3287","OBJECT_ID":"2021-125S","EPOCH":"2025-11-15T11:56:22.909632","MEAN_MOTION":15.08847571,"ECCENTRICITY":0.0001582,"INCLINATION":53.2171,"RA_OF_ASC_NODE":41.7483,"ARG_OF_PERICENTER":83.841,"MEAN_ANOMALY":276.2762,"EPHEMERIS_TYPE":0,"CLASSIFICATION_TYPE":"U","NORAD_CAT_ID":50172,"ELEMENT_SET_NO":999,"REV_AT_EPOCH":21939,"BSTAR":0.00018422,"MEAN_MOTION_DOT":2.646e-5,"MEAN_MOTION_DDOT":0}]
